{
  "norad_id": 60051,
  "name": "STARLINK-31811",
  "history": [
    {
      "epoch": "2026-04-10T12:11:58.846272Z",
      "apogee_km": 474.5348421243434,
      "perigee_km": 473.4302804510644,
      "latitude_deg": 1.7996950983852696e-05,
      "longitude_deg": -91.21713352803346,
      "height_km": 474.6645217565489,
      "semi_major_axis_km": 6852.119561287704,
      "eccentricity": 8.06e-05,
      "inclination_deg": 53.1596,
      "raan_deg": 290.5192,
      "arg_perigee_deg": 66.8707,
      "mean_anomaly_deg": 293.2379,
      "mean_motion_rev_day": 15.3061288
    },
    {
      "epoch": "2026-04-10T21:36:08.422272Z",
      "apogee_km": 474.5378968469795,
      "perigee_km": 473.3319321900244,
      "latitude_deg": -3.4744165670750635e-05,
      "longitude_deg": 125.53667271755879,
      "height_km": 474.50580617809317,
      "semi_major_axis_km": 6852.071914518501,
      "eccentricity": 8.8e-05,
      "inclination_deg": 53.1595,
      "raan_deg": 288.6991,
      "arg_perigee_deg": 57.0442,
      "mean_anomaly_deg": 303.0643,
      "mean_motion_rev_day": 15.30628845
    },
    {
      "epoch": "2026-04-12T11:12:45.265248Z",
      "apogee_km": 474.41411229622645,
      "perigee_km": 473.3219026980323,
      "latitude_deg": 3.113272133418732e-05,
      "longitude_deg": -87.4453900649055,
      "height_km": 474.5360518173234,
      "semi_major_axis_km": 6852.00500749713,
      "eccentricity": 7.97e-05,
      "inclination_deg": 53.1587,
      "raan_deg": 281.4151,
      "arg_perigee_deg": 64.9996,
      "mean_anomaly_deg": 295.1088,
      "mean_motion_rev_day": 15.30651264
    },
    {
      "epoch": "2026-04-14T14:55:32.256768Z",
      "apogee_km": 474.2985596075405,
      "perigee_km": 473.2022576221625,
      "latitude_deg": 4.8912097638459785e-05,
      "longitude_deg": -155.28175318979757,
      "height_km": 474.3768649246265,
      "semi_major_axis_km": 6851.887408614851,
      "eccentricity": 8e-05,
      "inclination_deg": 53.1572,
      "raan_deg": 271.3983,
      "arg_perigee_deg": 60.2172,
      "mean_anomaly_deg": 299.8909,
      "mean_motion_rev_day": 15.3069067
    },
    {
      "epoch": "2026-04-15T17:33:54.510624Z",
      "apogee_km": 474.1722812712251,
      "perigee_km": 473.1869900390175,
      "latitude_deg": -1.512149728192807e-05,
      "longitude_deg": 158.87123072918573,
      "height_km": 474.31248477342734,
      "semi_major_axis_km": 6851.816635655121,
      "eccentricity": 7.19e-05,
      "inclination_deg": 53.1572,
      "raan_deg": 266.2381,
      "arg_perigee_deg": 57.3184,
      "mean_anomaly_deg": 302.7886,
      "mean_motion_rev_day": 15.30714386
    },
    {
      "epoch": "2026-04-16T20:12:15.261120Z",
      "apogee_km": 474.0791262729381,
      "perigee_km": 473.1212534137994,
      "latitude_deg": 7.762934521189023e-06,
      "longitude_deg": 113.0303606550825,
      "height_km": 474.1963625082278,
      "semi_major_axis_km": 6851.7371898433685,
      "eccentricity": 6.99e-05,
      "inclination_deg": 53.1579,
      "raan_deg": 261.0777,
      "arg_perigee_deg": 50.7764,
      "mean_anomaly_deg": 309.3299,
      "mean_motion_rev_day": 15.30741009
    },
    {
      "epoch": "2026-04-17T16:34:29.907552Z",
      "apogee_km": 474.04785593764154,
      "perigee_km": 473.0136652058609,
      "latitude_deg": 3.118365619587948e-05,
      "longitude_deg": 162.68685603872703,
      "height_km": 474.06790152967585,
      "semi_major_axis_km": 6851.6677605717505,
      "eccentricity": 7.547e-05,
      "inclination_deg": 53.1593,
      "raan_deg": 257.1318,
      "arg_perigee_deg": 45.5605,
      "mean_anomaly_deg": 314.5458,
      "mean_motion_rev_day": 15.30764276
    },
    {
      "epoch": "2026-04-18T16:04:45.123744Z",
      "apogee_km": 473.98553368463763,
      "perigee_km": 472.8303632063298,
      "latitude_deg": 4.9275171227277e-05,
      "longitude_deg": 164.60508477752055,
      "height_km": 473.88830460494245,
      "semi_major_axis_km": 6851.544948445484,
      "eccentricity": 8.43e-05,
      "inclination_deg": 53.1604,
      "raan_deg": 252.5787,
      "arg_perigee_deg": 43.5077,
      "mean_anomaly_deg": 316.5991,
      "mean_motion_rev_day": 15.30805434
    },
    {
      "epoch": "2026-04-19T14:00:57.122208Z",
      "apogee_km": 473.90584396684153,
      "perigee_km": 472.64244375191265,
      "latitude_deg": 3.564137811499748e-06,
      "longitude_deg": -169.5952504858721,
      "height_km": 473.67579840496353,
      "semi_major_axis_km": 6851.411143859376,
      "eccentricity": 9.22e-05,
      "inclination_deg": 53.1606,
      "raan_deg": 248.3293,
      "arg_perigee_deg": 38.0162,
      "mean_anomaly_deg": 322.0904,
      "mean_motion_rev_day": 15.30850278
    },
    {
      "epoch": "2026-04-20T15:05:08.044512Z",
      "apogee_km": 473.9282797371743,
      "perigee_km": 472.3434432988479,
      "latitude_deg": -1.631701848139324e-05,
      "longitude_deg": 168.47404716803044,
      "height_km": 473.37114987515804,
      "semi_major_axis_km": 6851.27286151801,
      "eccentricity": 0.00011566,
      "inclination_deg": 53.1604,
      "raan_deg": 243.4737,
      "arg_perigee_deg": 33.0814,
      "mean_anomaly_deg": 327.0259,
      "mean_motion_rev_day": 15.30896625
    },
    {
      "epoch": "2026-04-21T14:35:15.419040Z",
      "apogee_km": 473.7373995441076,
      "perigee_km": 472.22330260952003,
      "latitude_deg": -2.8122590802947156e-05,
      "longitude_deg": 170.42321392440522,
      "height_km": 473.26289797710785,
      "semi_major_axis_km": 6851.117351076814,
      "eccentricity": 0.0001105,
      "inclination_deg": 53.1592,
      "raan_deg": 238.9188,
      "arg_perigee_deg": 35.4661,
      "mean_anomaly_deg": 324.6413,
      "mean_motion_rev_day": 15.30948749
    },
    {
      "epoch": "2026-04-22T12:31:19.591392Z",
      "apogee_km": 473.6633241973741,
      "perigee_km": 472.0122392749763,
      "latitude_deg": -1.948676659835107e-05,
      "longitude_deg": -163.74558432702736,
      "height_km": 473.0570785268171,
      "semi_major_axis_km": 6850.974781736175,
      "eccentricity": 0.0001205,
      "inclination_deg": 53.1582,
      "raan_deg": 234.6682,
      "arg_perigee_deg": 34.5808,
      "mean_anomaly_deg": 325.5271,
      "mean_motion_rev_day": 15.30996538
    },
    {
      "epoch": "2026-04-23T01:03:20.973600Z",
      "apogee_km": 473.63966011109005,
      "perigee_km": 471.88144576310515,
      "latitude_deg": 2.6579959288877172e-05,
      "longitude_deg": 5.305248078580223,
      "height_km": 472.92501988120466,
      "semi_major_axis_km": 6850.897552937097,
      "eccentricity": 0.00012832,
      "inclination_deg": 53.1579,
      "raan_deg": 232.2395,
      "arg_perigee_deg": 33.3354,
      "mean_anomaly_deg": 326.7728,
      "mean_motion_rev_day": 15.31022426
    },
    {
      "epoch": "2026-04-24T17:47:19.807008Z",
      "apogee_km": 473.5255230000439,
      "perigee_km": 471.4237553491448,
      "latitude_deg": -9.751171887257115e-06,
      "longitude_deg": 104.74453419246815,
      "height_km": 472.4827004854715,
      "semi_major_axis_km": 6850.611639174594,
      "eccentricity": 0.0001534,
      "inclination_deg": 53.1584,
      "raan_deg": 224.3468,
      "arg_perigee_deg": 32.0381,
      "mean_anomaly_deg": 328.0713,
      "mean_motion_rev_day": 15.31118274
    },
    {
      "epoch": "2026-04-25T14:09:15.262272Z",
      "apogee_km": 473.3570128847523,
      "perigee_km": 471.21968017663403,
      "latitude_deg": 1.2174263291463976e-05,
      "longitude_deg": 154.47990922852156,
      "height_km": 472.28556701155276,
      "semi_major_axis_km": 6850.425346530693,
      "eccentricity": 0.000156,
      "inclination_deg": 53.1585,
      "raan_deg": 220.3996,
      "arg_perigee_deg": 32.4633,
      "mean_anomaly_deg": 327.6464,
      "mean_motion_rev_day": 15.31180731
    },
    {
      "epoch": "2026-04-26T13:39:06.086016Z",
      "apogee_km": 473.11680103030176,
      "perigee_km": 470.9644752164031,
      "latitude_deg": 1.6187958334301052e-06,
      "longitude_deg": 156.49803003191428,
      "height_km": 472.0219428176424,
      "semi_major_axis_km": 6850.177638123352,
      "eccentricity": 0.0001571,
      "inclination_deg": 53.1581,
      "raan_deg": 215.8445,
      "arg_perigee_deg": 31.4979,
      "mean_anomaly_deg": 328.6116,
      "mean_motion_rev_day": 15.31263785
    },
    {
      "epoch": "2026-04-27T13:08:52.410048Z",
      "apogee_km": 472.8546445564298,
      "perigee_km": 470.7695200557755,
      "latitude_deg": 3.420195883959289e-05,
      "longitude_deg": 158.53528350671377,
      "height_km": 471.842995506109,
      "semi_major_axis_km": 6849.949082306102,
      "eccentricity": 0.0001522,
      "inclination_deg": 53.1586,
      "raan_deg": 211.2897,
      "arg_perigee_deg": 33.6329,
      "mean_anomaly_deg": 326.4769,
      "mean_motion_rev_day": 15.31340424
    },
    {
      "epoch": "2026-04-28T15:46:32.149056Z",
      "apogee_km": 472.6891392126863,
      "perigee_km": 470.47530995930083,
      "latitude_deg": 3.6154023319449636e-05,
      "longitude_deg": 112.86344560043077,
      "height_km": 471.5716344678682,
      "semi_major_axis_km": 6849.719224585993,
      "eccentricity": 0.0001616,
      "inclination_deg": 53.1589,
      "raan_deg": 206.127,
      "arg_perigee_deg": 34.749,
      "mean_anomaly_deg": 325.3617,
      "mean_motion_rev_day": 15.31417506
    },
    {
      "epoch": "2026-04-29T12:08:13.861536Z",
      "apogee_km": 472.6099413282891,
      "perigee_km": 470.28080933738056,
      "latitude_deg": 4.252012409605693e-05,
      "longitude_deg": 162.65472805940882,
      "height_km": 471.35020185425395,
      "semi_major_axis_km": 6849.582375332834,
      "eccentricity": 0.00017002,
      "inclination_deg": 53.1588,
      "raan_deg": 202.1783,
      "arg_perigee_deg": 31.3881,
      "mean_anomaly_deg": 328.7222,
      "mean_motion_rev_day": 15.31463401
    }
  ]
}